[{"OBJECT_NAME":"STARLINK-31268","OBJECT_ID":"2024-049Q","EPOCH":"2026-03-09T22:00:01.999584","MEAN_MOTION":15.80181847,"ECCENTRICITY":0.00239404,"INCLINATION":42.9822,"RA_OF_ASC_NODE":121.2463,"ARG_OF_PERICENTER":68.2784,"MEAN_ANOMALY":176.6479,"EPHEMERIS_TYPE":0,"CLASSIFICATION_TYPE":"U","NORAD_CAT_ID":59245,"ELEMENT_SET_NO":999,"REV_AT_EPOCH":593,"BSTAR":0.00074266557,"MEAN_MOTION_DOT":0.00148493,"MEAN_MOTION_DDOT":0},{"OBJECT_NAME":"STARLINK-36572","OBJECT_ID":"2026-014E","EPOCH":"2026-03-09T15:34:58.460736","MEAN_MOTION":15.75201559,"ECCENTRICITY":0.0001493,"INCLINATION":97.2839,"RA_OF_ASC_NODE":313.5273,"ARG_OF_PERICENTER":17.9555,"MEAN_ANOMALY":342.1763,"EPHEMERIS_TYPE":0,"CLASSIFICATION_TYPE":"U","NORAD_CAT_ID":67536,"ELEMENT_SET_NO":999,"REV_AT_EPOCH":856,"BSTAR":0.0011708,"MEAN_MOTION_DOT":0.00178286,"MEAN_MOTION_DDOT":0}]
